CCSDS_OMM_VERS = 2.0
CREATION_DATE  = 
ORIGINATOR     = 

OBJECT_NAME    = ATLAS CENTAUR 2
OBJECT_ID      = 1963-047A
CENTER_NAME    = EARTH
REF_FRAME      = TEME
TIME_SYSTEM    = UTC
MEAN_ELEMENT_THEORY = SGP/SGP4

EPOCH          = 2025-12-08T16:37:56.521056
MEAN_MOTION    = 14.11725844
ECCENTRICITY   = .0549047
INCLINATION    = 30.3565
RA_OF_ASC_NODE = 344.0618
ARG_OF_PERICENTER = 358.5204
MEAN_ANOMALY   = 1.3780

EPHEMERIS_TYPE = 0
CLASSIFICATION_TYPE = U
NORAD_CAT_ID   = 694
ELEMENT_SET_NO = 999
REV_AT_EPOCH   = 11875
BSTAR          = .58108E-3
MEAN_MOTION_DOT = .4814E-4
MEAN_MOTION_DDOT = 0

CCSDS_OMM_VERS = 2.0
CREATION_DATE  = 
ORIGINATOR     = 

OBJECT_NAME    = THOR AGENA D R/B
OBJECT_ID      = 1964-002A
CENTER_NAME    = EARTH
REF_FRAME      = TEME
TIME_SYSTEM    = UTC
MEAN_ELEMENT_THEORY = SGP/SGP4

EPOCH          = 2025-12-08T17:52:58.050048
MEAN_MOTION    = 14.33956237
ECCENTRICITY   = .0033184
INCLINATION    = 99.1216
RA_OF_ASC_NODE = 346.1478
ARG_OF_PERICENTER = 161.7179
MEAN_ANOMALY   = 198.5205

EPHEMERIS_TYPE = 0
CLASSIFICATION_TYPE = U
NORAD_CAT_ID   = 733
ELEMENT_SET_NO = 999
REV_AT_EPOCH   = 22526
BSTAR          = .18432E-3
MEAN_MOTION_DOT = .469E-5
MEAN_MOTION_DDOT = 0

CCSDS_OMM_VERS = 2.0
CREATION_DATE  = 
ORIGINATOR     = 

OBJECT_NAME    = SL-3 R/B
OBJECT_ID      = 1964-053B
CENTER_NAME    = EARTH
REF_FRAME      = TEME
TIME_SYSTEM    = UTC
MEAN_ELEMENT_THEORY = SGP/SGP4

EPOCH          = 2025-12-08T19:23:55.002336
MEAN_MOTION    = 14.61271131
ECCENTRICITY   = .0073536
INCLINATION    = 65.0769
RA_OF_ASC_NODE = 237.6573
ARG_OF_PERICENTER = 321.6455
MEAN_ANOMALY   = 37.9428

EPHEMERIS_TYPE = 0
CLASSIFICATION_TYPE = U
NORAD_CAT_ID   = 877
ELEMENT_SET_NO = 999
REV_AT_EPOCH   = 25351
BSTAR          = .17317E-3
MEAN_MOTION_DOT = .765E-5
MEAN_MOTION_DDOT = 0

CCSDS_OMM_VERS = 2.0
CREATION_DATE  = 
ORIGINATOR     = 

OBJECT_NAME    = SL-8 R/B
OBJECT_ID      = 1967-045B
CENTER_NAME    = EARTH
REF_FRAME      = TEME
TIME_SYSTEM    = UTC
MEAN_ELEMENT_THEORY = SGP/SGP4

EPOCH          = 2025-12-08T20:21:03.649824
MEAN_MOTION    = 14.45531288
ECCENTRICITY   = .0064494
INCLINATION    = 74.0096
RA_OF_ASC_NODE = 157.7298
ARG_OF_PERICENTER = 187.9735
MEAN_ANOMALY   = 172.0404

EPHEMERIS_TYPE = 0
CLASSIFICATION_TYPE = U
NORAD_CAT_ID   = 2802
ELEMENT_SET_NO = 999
REV_AT_EPOCH   = 7589
BSTAR          = .22145E-3
MEAN_MOTION_DOT = .773E-5
MEAN_MOTION_DDOT = 0

CCSDS_OMM_VERS = 2.0
CREATION_DATE  = 
ORIGINATOR     = 

OBJECT_NAME    = SL-8 R/B
OBJECT_ID      = 1968-040B
CENTER_NAME    = EARTH
REF_FRAME      = TEME
TIME_SYSTEM    = UTC
MEAN_ELEMENT_THEORY = SGP/SGP4

EPOCH          = 2025-12-08T20:16:54.612192
MEAN_MOTION    = 15.02482714
ECCENTRICITY   = .0025203
INCLINATION    = 74.0301
RA_OF_ASC_NODE = 139.2078
ARG_OF_PERICENTER = 341.6325
MEAN_ANOMALY   = 18.3950

EPHEMERIS_TYPE = 0
CLASSIFICATION_TYPE = U
NORAD_CAT_ID   = 3230
ELEMENT_SET_NO = 999
REV_AT_EPOCH   = 7636
BSTAR          = .46776E-3
MEAN_MOTION_DOT = .6215E-4
MEAN_MOTION_DDOT = 0

CCSDS_OMM_VERS = 2.0
CREATION_DATE  = 
ORIGINATOR     = 

OBJECT_NAME    = OAO 2
OBJECT_ID      = 1968-110A
CENTER_NAME    = EARTH
REF_FRAME      = TEME
TIME_SYSTEM    = UTC
MEAN_ELEMENT_THEORY = SGP/SGP4

EPOCH          = 2025-12-08T13:54:24.370272
MEAN_MOTION    = 14.47240713
ECCENTRICITY   = .000558
INCLINATION    = 34.9942
RA_OF_ASC_NODE = 53.8842
ARG_OF_PERICENTER = 192.8214
MEAN_ANOMALY   = 167.2336

EPHEMERIS_TYPE = 0
CLASSIFICATION_TYPE = U
NORAD_CAT_ID   = 3597
ELEMENT_SET_NO = 999
REV_AT_EPOCH   = 589
BSTAR          = .17755E-3
MEAN_MOTION_DOT = .639E-5
MEAN_MOTION_DDOT = 0

CCSDS_OMM_VERS = 2.0
CREATION_DATE  = 
ORIGINATOR     = 

OBJECT_NAME    = ISIS 1
OBJECT_ID      = 1969-009A
CENTER_NAME    = EARTH
REF_FRAME      = TEME
TIME_SYSTEM    = UTC
MEAN_ELEMENT_THEORY = SGP/SGP4

EPOCH          = 2025-12-08T19:28:16.256928
MEAN_MOTION    = 11.30352178
ECCENTRICITY   = .170684
INCLINATION    = 88.4487
RA_OF_ASC_NODE = 165.2262
ARG_OF_PERICENTER = 272.6382
MEAN_ANOMALY   = 68.1348

EPHEMERIS_TYPE = 0
CLASSIFICATION_TYPE = U
NORAD_CAT_ID   = 3669
ELEMENT_SET_NO = 999
REV_AT_EPOCH   = 33826
BSTAR          = .27094E-3
MEAN_MOTION_DOT = .372E-5
MEAN_MOTION_DDOT = 0

CCSDS_OMM_VERS = 2.0
CREATION_DATE  = 
ORIGINATOR     = 

OBJECT_NAME    = SERT 2
OBJECT_ID      = 1970-009A
CENTER_NAME    = EARTH
REF_FRAME      = TEME
TIME_SYSTEM    = UTC
MEAN_ELEMENT_THEORY = SGP/SGP4

EPOCH          = 2025-12-08T19:54:11.209824
MEAN_MOTION    = 13.58716885
ECCENTRICITY   = .0005502
INCLINATION    = 99.2643
RA_OF_ASC_NODE = 285.9481
ARG_OF_PERICENTER = 43.2270
MEAN_ANOMALY   = 11.7453

EPHEMERIS_TYPE = 0
CLASSIFICATION_TYPE = U
NORAD_CAT_ID   = 4327
ELEMENT_SET_NO = 999
REV_AT_EPOCH   = 76755
BSTAR          = .15808E-3
MEAN_MOTION_DOT = .74E-6
MEAN_MOTION_DDOT = 0

CCSDS_OMM_VERS = 2.0
CREATION_DATE  = 
ORIGINATOR     = 

OBJECT_NAME    = SL-3 R/B
OBJECT_ID      = 1971-028B
CENTER_NAME    = EARTH
REF_FRAME      = TEME
TIME_SYSTEM    = UTC
MEAN_ELEMENT_THEORY = SGP/SGP4

EPOCH          = 2025-12-08T19:30:29.249856
MEAN_MOTION    = 15.54128360
ECCENTRICITY   = .0019373
INCLINATION    = 81.2373
RA_OF_ASC_NODE = 163.6484
ARG_OF_PERICENTER = 254.6148
MEAN_ANOMALY   = 105.2961

EPHEMERIS_TYPE = 0
CLASSIFICATION_TYPE = U
NORAD_CAT_ID   = 5118
ELEMENT_SET_NO = 999
REV_AT_EPOCH   = 97452
BSTAR          = .52284E-3
MEAN_MOTION_DOT = .34352E-3
MEAN_MOTION_DDOT = 0

CCSDS_OMM_VERS = 2.0
CREATION_DATE  = 
ORIGINATOR     = 

OBJECT_NAME    = ASTEX 1
OBJECT_ID      = 1971-089A
CENTER_NAME    = EARTH
REF_FRAME      = TEME
TIME_SYSTEM    = UTC
MEAN_ELEMENT_THEORY = SGP/SGP4

EPOCH          = 2025-12-08T20:12:38.921760
MEAN_MOTION    = 14.50636249
ECCENTRICITY   = .0016865
INCLINATION    = 92.7136
RA_OF_ASC_NODE = 122.3580
ARG_OF_PERICENTER = 38.1711
MEAN_ANOMALY   = 322.0686

EPHEMERIS_TYPE = 0
CLASSIFICATION_TYPE = U
NORAD_CAT_ID   = 5560
ELEMENT_SET_NO = 999
REV_AT_EPOCH   = 84913
BSTAR          = .29244E-3
MEAN_MOTION_DOT = .1148E-4
MEAN_MOTION_DDOT = 0

CCSDS_OMM_VERS = 2.0
CREATION_DATE  = 
ORIGINATOR     = 

OBJECT_NAME    = SL-8 R/B
OBJECT_ID      = 1971-119B
CENTER_NAME    = EARTH
REF_FRAME      = TEME
TIME_SYSTEM    = UTC
MEAN_ELEMENT_THEORY = SGP/SGP4

EPOCH          = 2025-12-08T17:09:47.263104
MEAN_MOTION    = 14.35584313
ECCENTRICITY   = .0559774
INCLINATION    = 73.8885
RA_OF_ASC_NODE = 345.4920
ARG_OF_PERICENTER = 330.5661
MEAN_ANOMALY   = 26.5003

EPHEMERIS_TYPE = 0
CLASSIFICATION_TYPE = U
NORAD_CAT_ID   = 5730
ELEMENT_SET_NO = 999
REV_AT_EPOCH   = 64242
BSTAR          = .84348E-3
MEAN_MOTION_DOT = .16161E-3
MEAN_MOTION_DDOT = 0

CCSDS_OMM_VERS = 2.0
CREATION_DATE  = 
ORIGINATOR     = 

OBJECT_NAME    = OAO 3 (COPERNICUS)
OBJECT_ID      = 1972-065A
CENTER_NAME    = EARTH
REF_FRAME      = TEME
TIME_SYSTEM    = UTC
MEAN_ELEMENT_THEORY = SGP/SGP4

EPOCH          = 2025-12-08T17:26:33.196704
MEAN_MOTION    = 14.59901615
ECCENTRICITY   = .0006115
INCLINATION    = 35.0053
RA_OF_ASC_NODE = 95.5253
ARG_OF_PERICENTER = 140.1239
MEAN_ANOMALY   = 7.3199

EPHEMERIS_TYPE = 0
CLASSIFICATION_TYPE = U
NORAD_CAT_ID   = 6153
ELEMENT_SET_NO = 999
REV_AT_EPOCH   = 83289
BSTAR          = .184E-3
MEAN_MOTION_DOT = .873E-5
MEAN_MOTION_DDOT = 0

