ATLAS CENTAUR 2         
1 00694U 63047A   25342.69301529  .00004814  00000+0  58108-3 0  9991
2 00694  30.3565 344.0618 0549047 358.5204   1.3780 14.11725844118753
THOR AGENA D R/B        
1 00733U 64002A   25342.74511632  .00000469  00000+0  18432-3 0  9999
2 00733  99.1216 346.1478 0033184 161.7179 198.5205 14.33956237225267
SL-3 R/B                
1 00877U 64053B   25342.80827549  .00000765  00000+0  17317-3 0  9998
2 00877  65.0769 237.6573 0073536 321.6455  37.9428 14.61271131253516
SL-8 R/B                
1 02802U 67045B   25342.84795891  .00000773  00000+0  22145-3 0  9994
2 02802  74.0096 157.7298 0064494 187.9735 172.0404 14.45531288 75894
SL-8 R/B                
1 03230U 68040B   25342.84507653  .00006215  00000+0  46776-3 0  9996
2 03230  74.0301 139.2078 0025203 341.6325  18.3950 15.02482714 76363
OAO 2                   
1 03597U 68110A   25342.57944873  .00000639  00000+0  17755-3 0  9998
2 03597  34.9942  53.8842 0005580 192.8214 167.2336 14.47240713  5895
ISIS 1                  
1 03669U 69009A   25342.81129927  .00000372  00000+0  27094-3 0  9999
2 03669  88.4487 165.2262 1706840 272.6382  68.1348 11.30352178338268
SERT 2                  
1 04327U 70009A   25342.82929641  .00000074  00000+0  15808-3 0  9994
2 04327  99.2643 285.9481 0005502  43.2270  11.7453 13.58716885767551
SL-3 R/B                
1 05118U 71028B   25342.81283854  .00034352  00000+0  52284-3 0  9998
2 05118  81.2373 163.6484 0019373 254.6148 105.2961 15.54128360974522
ASTEX 1                 
1 05560U 71089A   25342.84211715  .00001148  00000+0  29244-3 0  9993
2 05560  92.7136 122.3580 0016865  38.1711 322.0686 14.50636249849136
SL-8 R/B                
1 05730U 71119B   25342.71513036  .00016161  00000+0  84348-3 0  9990
2 05730  73.8885 345.4920 0559774 330.5661  26.5003 14.35584313642425
OAO 3 (COPERNICUS)      
1 06153U 72065A   25342.72677311  .00000873  00000+0  18400-3 0  9998
2 06153  35.0053  95.5253 0006115 140.1239   7.3199 14.59901615832895
